start=new Date('2022-12-27T00:00:00.000Z').valueOf();
sats=[{"SEMIMAJOR_AXIS":"6925.367","MEAN_ELEMENT_THEORY":"SGP4","CENTER_NAME":"EARTH","MEAN_MOTION_DOT":"0.00000251","TIME_SYSTEM":"UTC","NORAD_CAT_ID":"48360","MEAN_MOTION":"15.06393983","EPOCH":"2022-12-26T14:38:44.875968","MEAN_MOTION_DDOT":"0.0000000000000","ARG_OF_PERICENTER":"83.5383","APOAPSIS":"548.265","OBJECT_NAME":"STARLINK-2622","REV_AT_EPOCH":"9081","CLASSIFICATION_TYPE":"U","DECAY_DATE":null,"INCLINATION":"53.0541","TLE_LINE1":"1 48360U 21038H   22360.61024162  .00000251  00000-0  35773-4 0  9997","MEAN_ANOMALY":"276.5776","FILE":"3723236","OBJECT_ID":"2021-038H","REF_FRAME":"TEME","TLE_LINE2":"2 48360  53.0541 209.8332 0001492  83.5383 276.5776 15.06393983 90819","ECCENTRICITY":"0.00014920","PERIOD":"95.593","OBJECT_TYPE":"PAYLOAD","LAUNCH_DATE":"2021-05-04","PERIAPSIS":"546.199","EPHEMERIS_TYPE":"0","RCS_SIZE":"LARGE","COUNTRY_CODE":"US","GP_ID":"221523077","SITE":"AFETR","BSTAR":"0.00003577300000","ELEMENT_SET_NO":"999","RA_OF_ASC_NODE":"209.8332"},{"MEAN_MOTION":"15.06399471","NORAD_CAT_ID":"48361","TIME_SYSTEM":"UTC","MEAN_MOTION_DOT":"0.00000431","CENTER_NAME":"EARTH","MEAN_ELEMENT_THEORY":"SGP4","SEMIMAJOR_AXIS":"6925.350","CLASSIFICATION_TYPE":"U","REV_AT_EPOCH":"9085","OBJECT_NAME":"STARLINK-2591","APOAPSIS":"548.139","ARG_OF_PERICENTER":"95.7215","MEAN_MOTION_DDOT":"0.0000000000000","EPOCH":"2022-12-26T20:55:35.512320","OBJECT_TYPE":"PAYLOAD","PERIOD":"95.592","TLE_LINE2":"2 48361  53.0513 208.6580 0001334  95.7215 264.3926 15.06399471 90859","ECCENTRICITY":"0.00013340","OBJECT_ID":"2021-038J","REF_FRAME":"TEME","MEAN_ANOMALY":"264.3926","TLE_LINE1":"1 48361U 21038J   22360.87193880  .00000431  00000-0  47826-4 0  9992","FILE":"3723236","INCLINATION":"53.0513","DECAY_DATE":null,"RA_OF_ASC_NODE":"208.6580","ELEMENT_SET_NO":"999","BSTAR":"0.00004782600000","SITE":"AFETR","GP_ID":"221523327","COUNTRY_CODE":"US","RCS_SIZE":"LARGE","EPHEMERIS_TYPE":"0","LAUNCH_DATE":"2021-05-04","PERIAPSIS":"546.291"},{"CLASSIFICATION_TYPE":"U","REV_AT_EPOCH":"9077","OBJECT_NAME":"STARLINK-2578","ARG_OF_PERICENTER":"91.9217","MEAN_MOTION_DDOT":"0.0000000000000","APOAPSIS":"548.172","EPOCH":"2022-12-26T07:23:32.084736","MEAN_MOTION":"15.06398812","NORAD_CAT_ID":"48362","CENTER_NAME":"EARTH","MEAN_MOTION_DOT":"-0.00000760","TIME_SYSTEM":"UTC","MEAN_ELEMENT_THEORY":"SGP4","SEMIMAJOR_AXIS":"6925.352","BSTAR":"-0.00003214800000","ELEMENT_SET_NO":"999","RA_OF_ASC_NODE":"211.2543","SITE":"AFETR","COUNTRY_CODE":"US","GP_ID":"221490550","EPHEMERIS_TYPE":"0","RCS_SIZE":"LARGE","PERIAPSIS":"546.262","LAUNCH_DATE":"2021-05-04","OBJECT_TYPE":"PAYLOAD","PERIOD":"95.592","FILE":"3722937","TLE_LINE1":"1 48362U 21038K   22360.30801024 -.00000760  00000-0 -32148-4 0  9995","MEAN_ANOMALY":"268.1930","TLE_LINE2":"2 48362  53.0538 211.2543 0001379  91.9217 268.1930 15.06398812 90771","ECCENTRICITY":"0.00013790","OBJECT_ID":"2021-038K","REF_FRAME":"TEME","DECAY_DATE":null,"INCLINATION":"53.0538"},{"RCS_SIZE":"LARGE","EPHEMERIS_TYPE":"0","LAUNCH_DATE":"2021-05-04","PERIAPSIS":"546.368","GP_ID":"221523830","COUNTRY_CODE":"US","SITE":"AFETR","RA_OF_ASC_NODE":"204.6578","ELEMENT_SET_NO":"999","BSTAR":"0.00001182200000","INCLINATION":"53.0535","DECAY_DATE":null,"TLE_LINE2":"2 48363  53.0535 204.6578 0001205  98.4459 261.6667 15.06403644 90899","ECCENTRICITY":"0.00012050","REF_FRAME":"TEME","OBJECT_ID":"2021-038L","FILE":"3723236","TLE_LINE1":"1 48363U 21038L   22360.64939635 -.00000105  00000-0  11822-4 0  9991","MEAN_ANOMALY":"261.6667","PERIOD":"95.592","OBJECT_TYPE":"PAYLOAD","EPOCH":"2022-12-26T15:35:07.844640","APOAPSIS":"548.037","ARG_OF_PERICENTER":"98.4459","MEAN_MOTION_DDOT":"0.0000000000000","OBJECT_NAME":"STARLINK-2626","CLASSIFICATION_TYPE":"U","REV_AT_EPOCH":"9089","MEAN_ELEMENT_THEORY":"SGP4","SEMIMAJOR_AXIS":"6925.337","MEAN_MOTION_DOT":"-0.00000105","TIME_SYSTEM":"UTC","CENTER_NAME":"EARTH","MEAN_MOTION":"15.06403644","NORAD_CAT_ID":"48363"},{"MEAN_MOTION_DDOT":"0.0000000000000","ARG_OF_PERICENTER":"61.9088","APOAPSIS":"548.407","EPOCH":"2022-12-26T14:20:52.969920","REV_AT_EPOCH":"9147","CLASSIFICATION_TYPE":"U","OBJECT_NAME":"STARLINK-2611","SEMIMAJOR_AXIS":"6925.374","MEAN_ELEMENT_THEORY":"SGP4","NORAD_CAT_ID":"48364","MEAN_MOTION":"15.06391609","CENTER_NAME":"EARTH","TIME_SYSTEM":"UTC","MEAN_MOTION_DOT":"-0.00001142","COUNTRY_CODE":"US","GP_ID":"221497704","LAUNCH_DATE":"2021-05-04","PERIAPSIS":"546.072","RCS_SIZE":"LARGE","EPHEMERIS_TYPE":"0","ELEMENT_SET_NO":"999","BSTAR":"-0.00005776300000","RA_OF_ASC_NODE":"205.0868","SITE":"AFETR","MEAN_ANOMALY":"298.2071","TLE_LINE1":"1 48364U 21038M   22360.59783530 -.00001142  00000-0 -57763-4 0  9994","FILE":"3723032","OBJECT_ID":"2021-038M","REF_FRAME":"TEME","ECCENTRICITY":"0.00016860","TLE_LINE2":"2 48364  53.0542 205.0868 0001686  61.9088 298.2071 15.06391609 91478","DECAY_DATE":null,"INCLINATION":"53.0542","OBJECT_TYPE":"PAYLOAD","PERIOD":"95.593"},{"OBJECT_NAME":"STARLINK-2608","CLASSIFICATION_TYPE":"U","REV_AT_EPOCH":"9090","EPOCH":"2022-12-26T16:33:32.029056","APOAPSIS":"548.233","ARG_OF_PERICENTER":"83.1967","MEAN_MOTION_DDOT":"0.0000000000000","TIME_SYSTEM":"UTC","MEAN_MOTION_DOT":"0.00000322","CENTER_NAME":"EARTH","MEAN_MOTION":"15.06400488","NORAD_CAT_ID":"48365","SEMIMAJOR_AXIS":"6925.347","MEAN_ELEMENT_THEORY":"SGP4","SITE":"AFETR","RA_OF_ASC_NODE":"204.4574","ELEMENT_SET_NO":"999","BSTAR":"0.00004050200000","RCS_SIZE":"LARGE","EPHEMERIS_TYPE":"0","PERIAPSIS":"546.191","LAUNCH_DATE":"2021-05-04","GP_ID":"221522828","COUNTRY_CODE":"US","PERIOD":"95.592","OBJECT_TYPE":"PAYLOAD","INCLINATION":"53.0526","DECAY_DATE":null,"TLE_LINE2":"2 48365  53.0526 204.4574 0001474  83.1967 276.9190 15.06400488 90903","ECCENTRICITY":"0.00014740","REF_FRAME":"TEME","OBJECT_ID":"2021-038N","TLE_LINE1":"1 48365U 21038N   22360.68995404  .00000322  00000-0  40502-4 0  9990","FILE":"3723236","MEAN_ANOMALY":"276.9190"},{"EPOCH":"2022-12-26T06:42:22.721760","MEAN_MOTION_DDOT":"0.0000000000000","ARG_OF_PERICENTER":"91.1608","APOAPSIS":"548.142","OBJECT_NAME":"STARLINK-2631","REV_AT_EPOCH":"9090","CLASSIFICATION_TYPE":"U","MEAN_ELEMENT_THEORY":"SGP4","SEMIMAJOR_AXIS":"6925.331","CENTER_NAME":"EARTH","MEAN_MOTION_DOT":"0.00000281","TIME_SYSTEM":"UTC","NORAD_CAT_ID":"48366","MEAN_MOTION":"15.06405837","PERIAPSIS":"546.249","LAUNCH_DATE":"2021-05-04","EPHEMERIS_TYPE":"0","RCS_SIZE":"MEDIUM","COUNTRY_CODE":"US","GP_ID":"221491051","SITE":"AFETR","ELEMENT_SET_NO":"999","BSTAR":"0.00003777700000","RA_OF_ASC_NODE":"201.3151","DECAY_DATE":null,"INCLINATION":"53.0520","MEAN_ANOMALY":"268.9538","TLE_LINE1":"1 48366U 21038P   22360.27942965  .00000281  00000-0  37777-4 0  9994","FILE":"3722937","OBJECT_ID":"2021-038P","REF_FRAME":"TEME","ECCENTRICITY":"0.00013670","TLE_LINE2":"2 48366  53.0520 201.3151 0001367  91.1608 268.9538 15.06405837 90907","PERIOD":"95.592","OBJECT_TYPE":"PAYLOAD"},{"OBJECT_NAME":"STARLINK-2643","REV_AT_EPOCH":"9096","CLASSIFICATION_TYPE":"U","EPOCH":"2022-12-26T16:10:18.359040","MEAN_MOTION_DDOT":"0.0000000000000","ARG_OF_PERICENTER":"80.4620","APOAPSIS":"548.138","CENTER_NAME":"EARTH","TIME_SYSTEM":"UTC","MEAN_MOTION_DOT":"0.00003094","NORAD_CAT_ID":"48367","MEAN_MOTION":"15.06400832","MEAN_ELEMENT_THEORY":"SGP4","SEMIMAJOR_AXIS":"6925.346","SITE":"AFETR","BSTAR":"0.00022649000000","ELEMENT_SET_NO":"999","RA_OF_ASC_NODE":"199.5423","PERIAPSIS":"546.284","LAUNCH_DATE":"2021-05-04","RCS_SIZE":"LARGE","EPHEMERIS_TYPE":"0","COUNTRY_CODE":"US","GP_ID":"221524330","PERIOD":"95.592","OBJECT_TYPE":"PAYLOAD","DECAY_DATE":null,"INCLINATION":"53.0521","FILE":"3723236","TLE_LINE1":"1 48367U 21038Q   22360.67382360  .00003094  00000-0  22649-3 0  9992","MEAN_ANOMALY":"279.6520","OBJECT_ID":"2021-038Q","REF_FRAME":"TEME","TLE_LINE2":"2 48367  53.0521 199.5423 0001338  80.4620 279.6520 15.06400832 90968","ECCENTRICITY":"0.00013380"},{"PERIOD":"95.592","OBJECT_TYPE":"PAYLOAD","DECAY_DATE":null,"INCLINATION":"53.0533","TLE_LINE1":"1 48368U 21038R   22360.65174324 -.00000250  00000-0  21147-5 0  9996","FILE":"3723236","MEAN_ANOMALY":"271.4843","ECCENTRICITY":"0.00014650","TLE_LINE2":"2 48368  53.0533 199.9202 0001465  88.6314 271.4843 15.06397206 90960","OBJECT_ID":"2021-038R","REF_FRAME":"TEME","SITE":"AFETR","BSTAR":"0.00000211470000","ELEMENT_SET_NO":"999","RA_OF_ASC_NODE":"199.9202","RCS_SIZE":"LARGE","EPHEMERIS_TYPE":"0","LAUNCH_DATE":"2021-05-04","PERIAPSIS":"546.208","COUNTRY_CODE":"US","GP_ID":"221523078","CENTER_NAME":"EARTH","MEAN_MOTION_DOT":"-0.00000250","TIME_SYSTEM":"UTC","MEAN_MOTION":"15.06397206","NORAD_CAT_ID":"48368","MEAN_ELEMENT_THEORY":"SGP4","SEMIMAJOR_AXIS":"6925.357","OBJECT_NAME":"STARLINK-2623","CLASSIFICATION_TYPE":"U","REV_AT_EPOCH":"9096","EPOCH":"2022-12-26T15:38:30.615936","ARG_OF_PERICENTER":"88.6314","MEAN_MOTION_DDOT":"0.0000000000000","APOAPSIS":"548.237"},{"OBJECT_NAME":"STARLINK-2641","REV_AT_EPOCH":"9096","CLASSIFICATION_TYPE":"U","EPOCH":"2022-12-26T16:05:00.627360","MEAN_MOTION_DDOT":"0.0000000000000","ARG_OF_PERICENTER":"76.9735","APOAPSIS":"548.687","CENTER_NAME":"EARTH","MEAN_MOTION_DOT":"0.00013630","TIME_SYSTEM":"UTC","NORAD_CAT_ID":"48369","MEAN_MOTION":"15.06339117","MEAN_ELEMENT_THEORY":"SGP4","SEMIMAJOR_AXIS":"6925.535","SITE":"AFETR","BSTAR":"0.00093366000000","ELEMENT_SET_NO":"999","RA_OF_ASC_NODE":"199.5574","LAUNCH_DATE":"2021-05-04","PERIAPSIS":"546.113","EPHEMERIS_TYPE":"0","RCS_SIZE":"LARGE","COUNTRY_CODE":"US","GP_ID":"221523328","PERIOD":"95.596","OBJECT_TYPE":"PAYLOAD","DECAY_DATE":null,"INCLINATION":"53.0532","TLE_LINE1":"1 48369U 21038S   22360.67014615  .00013630  00000-0  93366-3 0  9990","MEAN_ANOMALY":"283.1462","FILE":"3723236","OBJECT_ID":"2021-038S","REF_FRAME":"TEME","TLE_LINE2":"2 48369  53.0532 199.5574 0001858  76.9735 283.1462 15.06339117 90965","ECCENTRICITY":"0.00018580"}];
